start=new Date('2023-06-17T00:00:00.000Z').valueOf();
sats=[{"OBJECT_ID":"2023-061AL","RA_OF_ASC_NODE":"209.0393","COUNTRY_CODE":"US","CLASSIFICATION_TYPE":"U","EPOCH":"2023-06-16T22:00:00.999936","EPHEMERIS_TYPE":"0","MEAN_MOTION":"15.54917612","OBJECT_TYPE":"PAYLOAD","INCLINATION":"42.9953","BSTAR":"-0.01420500000000","PERIOD":"92.609","SEMIMAJOR_AXIS":"6780.529","TLE_LINE1":"1 56408U 23061AL  23167.91667824 -.00887511  00000-0 -14205-1 0  9992","ELEMENT_SET_NO":"999","CENTER_NAME":"EARTH","MEAN_MOTION_DDOT":"0.0000000000000","SITE":"AFETR","DECAY_DATE":null,"GP_ID":"234099072","REF_FRAME":"TEME","FILE":"3934949","NORAD_CAT_ID":"56408","RCS_SIZE":"LARGE","MEAN_ANOMALY":"178.4174","PERIAPSIS":"401.424","MEAN_ELEMENT_THEORY":"SGP4","ECCENTRICITY":"0.00014310","LAUNCH_DATE":"2023-05-04","APOAPSIS":"403.364","MEAN_MOTION_DOT":"-0.00887511","TLE_LINE2":"2 56408  42.9953 209.0393 0001431 273.9337 178.4174 15.54917612  1303","ARG_OF_PERICENTER":"273.9337","REV_AT_EPOCH":"130","TIME_SYSTEM":"UTC","OBJECT_NAME":"STARLINK-6289"},{"TIME_SYSTEM":"UTC","OBJECT_NAME":"STARLINK-6241","ARG_OF_PERICENTER":"269.0266","REV_AT_EPOCH":"130","MEAN_MOTION_DOT":"-0.00887256","TLE_LINE2":"2 56409  42.9955 209.0453 0001431 269.0266 180.9944 15.54899625  1306","MEAN_ANOMALY":"180.9944","PERIAPSIS":"401.476","MEAN_ELEMENT_THEORY":"SGP4","ECCENTRICITY":"0.00014310","APOAPSIS":"403.417","LAUNCH_DATE":"2023-05-04","GP_ID":"234098761","REF_FRAME":"TEME","FILE":"3934949","NORAD_CAT_ID":"56409","RCS_SIZE":"LARGE","ELEMENT_SET_NO":"999","CENTER_NAME":"EARTH","MEAN_MOTION_DDOT":"0.0000000000000","SITE":"AFETR","TLE_LINE1":"1 56409U 23061AM  23167.91667824 -.00887256  00000-0 -14210-1 0  9995","SEMIMAJOR_AXIS":"6780.581","DECAY_DATE":null,"MEAN_MOTION":"15.54899625","EPHEMERIS_TYPE":"0","EPOCH":"2023-06-16T22:00:00.999936","BSTAR":"-0.01421000000000","PERIOD":"92.610","OBJECT_TYPE":"PAYLOAD","INCLINATION":"42.9955","CLASSIFICATION_TYPE":"U","COUNTRY_CODE":"US","OBJECT_ID":"2023-061AM","RA_OF_ASC_NODE":"209.0453"},{"EPHEMERIS_TYPE":"0","EPOCH":"2023-06-16T22:00:00.999936","MEAN_MOTION":"15.54928948","OBJECT_TYPE":"PAYLOAD","INCLINATION":"42.9956","BSTAR":"-0.01418700000000","PERIOD":"92.609","TLE_LINE1":"1 56410U 23061AN  23167.91667824 -.00886829  00000-0 -14187-1 0  9995","SEMIMAJOR_AXIS":"6780.496","ELEMENT_SET_NO":"999","CENTER_NAME":"EARTH","MEAN_MOTION_DDOT":"0.0000000000000","SITE":"AFETR","DECAY_DATE":null,"OBJECT_ID":"2023-061AN","RA_OF_ASC_NODE":"209.0360","COUNTRY_CODE":"US","CLASSIFICATION_TYPE":"U","MEAN_MOTION_DOT":"-0.00886829","TLE_LINE2":"2 56410  42.9956 209.0360 0001449 274.7330 179.1718 15.54928948  1300","ARG_OF_PERICENTER":"274.7330","REV_AT_EPOCH":"130","TIME_SYSTEM":"UTC","OBJECT_NAME":"STARLINK-6281","GP_ID":"234099016","REF_FRAME":"TEME","RCS_SIZE":"LARGE","FILE":"3934949","NORAD_CAT_ID":"56410","MEAN_ANOMALY":"179.1718","PERIAPSIS":"401.379","MEAN_ELEMENT_THEORY":"SGP4","ECCENTRICITY":"0.00014490","LAUNCH_DATE":"2023-05-04","APOAPSIS":"403.344"},{"REF_FRAME":"TEME","GP_ID":"234099176","RCS_SIZE":"LARGE","FILE":"3934949","NORAD_CAT_ID":"56411","ECCENTRICITY":"0.00014150","PERIAPSIS":"401.468","MEAN_ELEMENT_THEORY":"SGP4","MEAN_ANOMALY":"181.7605","APOAPSIS":"403.387","LAUNCH_DATE":"2023-05-04","MEAN_MOTION_DOT":"-0.00887959","TLE_LINE2":"2 56411  42.9954 209.0430 0001415 269.0370 181.7605 15.54906109  1300","OBJECT_NAME":"STARLINK-6279","TIME_SYSTEM":"UTC","REV_AT_EPOCH":"130","ARG_OF_PERICENTER":"269.0370","OBJECT_ID":"2023-061AP","RA_OF_ASC_NODE":"209.0430","CLASSIFICATION_TYPE":"U","COUNTRY_CODE":"US","MEAN_MOTION":"15.54906109","EPHEMERIS_TYPE":"0","EPOCH":"2023-06-16T22:00:00.999936","PERIOD":"92.610","BSTAR":"-0.01421900000000","INCLINATION":"42.9954","OBJECT_TYPE":"PAYLOAD","SITE":"AFETR","MEAN_MOTION_DDOT":"0.0000000000000","ELEMENT_SET_NO":"999","CENTER_NAME":"EARTH","TLE_LINE1":"1 56411U 23061AP  23167.91667824 -.00887959  00000-0 -14219-1 0  9997","SEMIMAJOR_AXIS":"6780.563","DECAY_DATE":null},{"OBJECT_NAME":"STARLINK-6278","TIME_SYSTEM":"UTC","REV_AT_EPOCH":"130","ARG_OF_PERICENTER":"271.1132","MEAN_MOTION_DOT":"-0.00887597","TLE_LINE2":"2 56412  42.9953 209.0318 0001431 271.1132 184.3441 15.54941365  1303","ECCENTRICITY":"0.00014310","MEAN_ANOMALY":"184.3441","PERIAPSIS":"401.355","MEAN_ELEMENT_THEORY":"SGP4","APOAPSIS":"403.295","LAUNCH_DATE":"2023-05-04","REF_FRAME":"TEME","GP_ID":"234098832","FILE":"3934949","RCS_SIZE":"LARGE","NORAD_CAT_ID":"56412","MEAN_MOTION_DDOT":"0.0000000000000","SITE":"AFETR","ELEMENT_SET_NO":"999","CENTER_NAME":"EARTH","SEMIMAJOR_AXIS":"6780.460","TLE_LINE1":"1 56412U 23061AQ  23167.91667824 -.00887597  00000-0 -14194-1 0  9998","DECAY_DATE":null,"MEAN_MOTION":"15.54941365","EPHEMERIS_TYPE":"0","EPOCH":"2023-06-16T22:00:00.999936","PERIOD":"92.608","BSTAR":"-0.01419400000000","INCLINATION":"42.9953","OBJECT_TYPE":"PAYLOAD","CLASSIFICATION_TYPE":"U","COUNTRY_CODE":"US","OBJECT_ID":"2023-061AQ","RA_OF_ASC_NODE":"209.0318"},{"RA_OF_ASC_NODE":"209.0374","OBJECT_ID":"2023-061AR","COUNTRY_CODE":"US","CLASSIFICATION_TYPE":"U","INCLINATION":"42.9954","OBJECT_TYPE":"PAYLOAD","PERIOD":"92.609","BSTAR":"-0.01419400000000","EPOCH":"2023-06-16T22:00:00.999936","EPHEMERIS_TYPE":"0","MEAN_MOTION":"15.54923234","DECAY_DATE":null,"TLE_LINE1":"1 56413U 23061AR  23167.91667824 -.00887054  00000-0 -14194-1 0  9997","SEMIMAJOR_AXIS":"6780.513","MEAN_MOTION_DDOT":"0.0000000000000","SITE":"AFETR","ELEMENT_SET_NO":"999","CENTER_NAME":"EARTH","NORAD_CAT_ID":"56413","FILE":"3934949","RCS_SIZE":"LARGE","GP_ID":"234099002","REF_FRAME":"TEME","LAUNCH_DATE":"2023-05-04","APOAPSIS":"403.350","ECCENTRICITY":"0.00014340","MEAN_ANOMALY":"182.4871","PERIAPSIS":"401.405","MEAN_ELEMENT_THEORY":"SGP4","TLE_LINE2":"2 56413  42.9954 209.0374 0001434 270.6409 182.4871 15.54923234  1302","MEAN_MOTION_DOT":"-0.00887054","REV_AT_EPOCH":"130","ARG_OF_PERICENTER":"270.6409","OBJECT_NAME":"STARLINK-6258","TIME_SYSTEM":"UTC"},{"REF_FRAME":"TEME","GP_ID":"234098776","RCS_SIZE":"LARGE","FILE":"3934949","NORAD_CAT_ID":"56414","MEAN_ANOMALY":"181.1701","PERIAPSIS":"401.326","MEAN_ELEMENT_THEORY":"SGP4","ECCENTRICITY":"0.00014210","LAUNCH_DATE":"2023-05-04","APOAPSIS":"403.253","MEAN_MOTION_DOT":"-0.00887790","TLE_LINE2":"2 56414  42.9954 209.0278 0001421 275.8396 181.1701 15.54953588  1307","ARG_OF_PERICENTER":"275.8396","REV_AT_EPOCH":"130","TIME_SYSTEM":"UTC","OBJECT_NAME":"STARLINK-5136","OBJECT_ID":"2023-061AS","RA_OF_ASC_NODE":"209.0278","COUNTRY_CODE":"US","CLASSIFICATION_TYPE":"U","EPOCH":"2023-06-16T22:00:00.999936","EPHEMERIS_TYPE":"0","MEAN_MOTION":"15.54953588","OBJECT_TYPE":"PAYLOAD","INCLINATION":"42.9954","BSTAR":"-0.01419100000000","PERIOD":"92.607","TLE_LINE1":"1 56414U 23061AS  23167.91667824 -.00887790  00000-0 -14191-1 0  9992","SEMIMAJOR_AXIS":"6780.425","ELEMENT_SET_NO":"999","CENTER_NAME":"EARTH","MEAN_MOTION_DDOT":"0.0000000000000","SITE":"AFETR","DECAY_DATE":null},{"OBJECT_ID":"2023-061AT","RA_OF_ASC_NODE":"209.0335","COUNTRY_CODE":"US","CLASSIFICATION_TYPE":"U","EPHEMERIS_TYPE":"0","EPOCH":"2023-06-16T22:00:00.999936","MEAN_MOTION":"15.54935688","OBJECT_TYPE":"PAYLOAD","INCLINATION":"42.9953","BSTAR":"-0.01420000000000","PERIOD":"92.608","TLE_LINE1":"1 56415U 23061AT  23167.91667824 -.00887766  00000-0 -14200-1 0  9997","SEMIMAJOR_AXIS":"6780.477","ELEMENT_SET_NO":"999","CENTER_NAME":"EARTH","MEAN_MOTION_DDOT":"0.0000000000000","SITE":"AFETR","DECAY_DATE":null,"REF_FRAME":"TEME","GP_ID":"234098938","RCS_SIZE":"LARGE","FILE":"3934949","NORAD_CAT_ID":"56415","PERIAPSIS":"401.379","MEAN_ELEMENT_THEORY":"SGP4","MEAN_ANOMALY":"180.0539","ECCENTRICITY":"0.00014200","LAUNCH_DATE":"2023-05-04","APOAPSIS":"403.304","MEAN_MOTION_DOT":"-0.00887766","TLE_LINE2":"2 56415  42.9953 209.0335 0001420 274.6268 180.0539 15.54935688  1303","ARG_OF_PERICENTER":"274.6268","REV_AT_EPOCH":"130","TIME_SYSTEM":"UTC","OBJECT_NAME":"STARLINK-6268"},{"DECAY_DATE":null,"TLE_LINE1":"1 56416U 23061AU  23167.53765175  .00001795  00000-0  17129-4 0  9998","SEMIMAJOR_AXIS":"6733.138","ELEMENT_SET_NO":"999","CENTER_NAME":"EARTH","MEAN_MOTION_DDOT":"0.0000000000000","SITE":"AFETR","OBJECT_TYPE":"PAYLOAD","INCLINATION":"42.9995","BSTAR":"0.00001712900000","PERIOD":"91.640","EPHEMERIS_TYPE":"0","EPOCH":"2023-06-16T12:54:13.111200","MEAN_MOTION":"15.71363002","COUNTRY_CODE":"US","CLASSIFICATION_TYPE":"U","RA_OF_ASC_NODE":"210.6990","OBJECT_ID":"2023-061AU","ARG_OF_PERICENTER":"268.2568","REV_AT_EPOCH":"681","TIME_SYSTEM":"UTC","OBJECT_NAME":"STARLINK-6260","TLE_LINE2":"2 56416  42.9995 210.6990 0001567 268.2568  91.8121 15.71363002  6810","MEAN_MOTION_DOT":"0.00001795","LAUNCH_DATE":"2023-05-04","APOAPSIS":"356.058","PERIAPSIS":"353.948","MEAN_ANOMALY":"91.8121","MEAN_ELEMENT_THEORY":"SGP4","ECCENTRICITY":"0.00015670","RCS_SIZE":"LARGE","FILE":"3934949","NORAD_CAT_ID":"56416","GP_ID":"234099073","REF_FRAME":"TEME"},{"DECAY_DATE":null,"ELEMENT_SET_NO":"999","CENTER_NAME":"EARTH","MEAN_MOTION_DDOT":"0.0000000000000","SITE":"AFETR","SEMIMAJOR_AXIS":"6780.441","TLE_LINE1":"1 56417U 23061AV  23167.91667824 -.00888130  00000-0 -14200-1 0  9995","BSTAR":"-0.01420000000000","PERIOD":"92.608","OBJECT_TYPE":"PAYLOAD","INCLINATION":"42.9953","MEAN_MOTION":"15.54947832","EPHEMERIS_TYPE":"0","EPOCH":"2023-06-16T22:00:00.999936","CLASSIFICATION_TYPE":"U","COUNTRY_CODE":"US","RA_OF_ASC_NODE":"209.0297","OBJECT_ID":"2023-061AV","TIME_SYSTEM":"UTC","OBJECT_NAME":"STARLINK-6261","ARG_OF_PERICENTER":"266.8235","REV_AT_EPOCH":"130","TLE_LINE2":"2 56417  42.9953 209.0297 0001417 266.8235 189.4099 15.54947832  1303","MEAN_MOTION_DOT":"-0.00888130","APOAPSIS":"403.267","LAUNCH_DATE":"2023-05-04","PERIAPSIS":"401.345","MEAN_ELEMENT_THEORY":"SGP4","MEAN_ANOMALY":"189.4099","ECCENTRICITY":"0.00014170","FILE":"3934949","NORAD_CAT_ID":"56417","RCS_SIZE":"LARGE","REF_FRAME":"TEME","GP_ID":"234098762"}];
